[{"OBJECT_NAME":"HERMES-3","OBJECT_ID":"2025-052BR","EPOCH":"2026-03-09T22:30:01.073952","MEAN_MOTION":15.30039786,"ECCENTRICITY":0.00079928,"INCLINATION":97.3987,"RA_OF_ASC_NODE":324.6131,"ARG_OF_PERICENTER":112.9583,"MEAN_ANOMALY":247.2502,"EPHEMERIS_TYPE":0,"CLASSIFICATION_TYPE":"U","NORAD_CAT_ID":63835,"ELEMENT_SET_NO":999,"REV_AT_EPOCH":5486,"BSTAR":0.0006995793,"MEAN_MOTION_DOT":0.00020316,"MEAN_MOTION_DDOT":0},{"OBJECT_NAME":"STARLINK-35798","OBJECT_ID":"2025-247AD","EPOCH":"2026-03-09T14:19:18.221952","MEAN_MOTION":15.3019642,"ECCENTRICITY":8.11e-5,"INCLINATION":53.16,"RA_OF_ASC_NODE":191.5694,"ARG_OF_PERICENTER":69.5956,"MEAN_ANOMALY":290.5132,"EPHEMERIS_TYPE":0,"CLASSIFICATION_TYPE":"U","NORAD_CAT_ID":66292,"ELEMENT_SET_NO":999,"REV_AT_EPOCH":2101,"BSTAR":0.00085285,"MEAN_MOTION_DOT":0.00024982,"MEAN_MOTION_DDOT":0}]
