HERMES-3                
1 63835U 25052BR  26068.93751242  .00020316  00000+0  69958-3 0  9995
2 63835  97.3987 324.6131 0007993 112.9583 247.2502 15.30039785 54863
STARLINK-35798          
1 66292U 25247AD  26068.59673868  .00024982  00000+0  85285-3 0  9994
2 66292  53.1600 191.5694 0000811  69.5956 290.5132 15.30196420 21014
